ORBCOMM FM24            
1 25478U 98053D   24270.83143627  .00003434  00000+0  12077-2 0  9992
2 25478  45.0078  76.4631 0000542 279.7486  80.3301 14.36471843359556
ORBCOMM FM25            
1 25479U 98053E   24270.86898255  .00003920  00000+0  13722-2 0  9998
2 25479  45.0068  74.5376 0002493   3.4538 356.6327 14.36452373359855
ORBCOMM FM26            
1 25480U 98053F   24270.86516653  .00003400  00000+0  12130-2 0  9994
2 25480  45.0069  69.3205 0004630  31.0002 329.1118 14.35765624359789
ORBCOMM FM27            
1 25481U 98053G   24271.13643190  .00003806  00000+0  13337-2 0  9993
2 25481  45.0051  73.5305 0001485 186.9611 173.1216 14.36449006359869
ORBCOMM FM28            
1 25482U 98053H   24271.01371868  .00003250  00000+0  11376-2 0  9995
2 25482  45.0070  12.1421 0001904  65.8364 294.2682 14.36814645360651
ORBCOMM FM30            
1 25980U 99065A   24271.23131146  .00002862  00000+0  10259-2 0  9996
2 25980  45.0300 253.2593 0004064 133.2295 226.8892 14.35913877297166
ORBCOMM FM31            
1 25981U 99065B   24270.64116683  .00002932  00000+0  10504-2 0  9991
2 25981  45.0216 249.6486 0001837 182.2035 177.8805 14.35887814296107
