<?xml version="1.0" encoding="UTF-8"?>
<ndm xmlns:xsi="http://www.w3.org/2001/XMLSchema-instance" xsi:noNamespaceSchemaLocation="https://sanaregistry.org/r/ndmxml_unqualified/ndmxml-2.0.0-master-2.0.xsd">
<omm id="CCSDS_OMM_VERS" version="2.0">
<header><CREATION_DATE/><ORIGINATOR/></header><body><segment><metadata><OBJECT_NAME>ORBCOMM FM24</OBJECT_NAME><OBJECT_ID>1998-053D</OBJECT_ID><CENTER_NAME>EARTH</CENTER_NAME><REF_FRAME>TEME</REF_FRAME><TIME_SYSTEM>UTC</TIME_SYSTEM><MEAN_ELEMENT_THEORY>SGP4</MEAN_ELEMENT_THEORY></metadata><data><meanElements><EPOCH>2024-09-26T19:57:16.093728</EPOCH><MEAN_MOTION>14.36471843</MEAN_MOTION><ECCENTRICITY>.0000542</ECCENTRICITY><INCLINATION>45.0078</INCLINATION><RA_OF_ASC_NODE>76.4631</RA_OF_ASC_NODE><ARG_OF_PERICENTER>279.7486</ARG_OF_PERICENTER><MEAN_ANOMALY>80.3301</MEAN_ANOMALY></meanElements><tleParameters><EPHEMERIS_TYPE>0</EPHEMERIS_TYPE><CLASSIFICATION_TYPE>U</CLASSIFICATION_TYPE><NORAD_CAT_ID>25478</NORAD_CAT_ID><ELEMENT_SET_NO>999</ELEMENT_SET_NO><REV_AT_EPOCH>35955</REV_AT_EPOCH><BSTAR>.12077E-2</BSTAR><MEAN_MOTION_DOT>.3434E-4</MEAN_MOTION_DOT><MEAN_MOTION_DDOT>0</MEAN_MOTION_DDOT></tleParameters></data></segment></body></omm>
<omm id="CCSDS_OMM_VERS" version="2.0">
<header><CREATION_DATE/><ORIGINATOR/></header><body><segment><metadata><OBJECT_NAME>ORBCOMM FM25</OBJECT_NAME><OBJECT_ID>1998-053E</OBJECT_ID><CENTER_NAME>EARTH</CENTER_NAME><REF_FRAME>TEME</REF_FRAME><TIME_SYSTEM>UTC</TIME_SYSTEM><MEAN_ELEMENT_THEORY>SGP4</MEAN_ELEMENT_THEORY></metadata><data><meanElements><EPOCH>2024-09-26T20:51:20.092320</EPOCH><MEAN_MOTION>14.36452373</MEAN_MOTION><ECCENTRICITY>.0002493</ECCENTRICITY><INCLINATION>45.0068</INCLINATION><RA_OF_ASC_NODE>74.5376</RA_OF_ASC_NODE><ARG_OF_PERICENTER>3.4538</ARG_OF_PERICENTER><MEAN_ANOMALY>356.6327</MEAN_ANOMALY></meanElements><tleParameters><EPHEMERIS_TYPE>0</EPHEMERIS_TYPE><CLASSIFICATION_TYPE>U</CLASSIFICATION_TYPE><NORAD_CAT_ID>25479</NORAD_CAT_ID><ELEMENT_SET_NO>999</ELEMENT_SET_NO><REV_AT_EPOCH>35985</REV_AT_EPOCH><BSTAR>.13722E-2</BSTAR><MEAN_MOTION_DOT>.392E-4</MEAN_MOTION_DOT><MEAN_MOTION_DDOT>0</MEAN_MOTION_DDOT></tleParameters></data></segment></body></omm>
<omm id="CCSDS_OMM_VERS" version="2.0">
<header><CREATION_DATE/><ORIGINATOR/></header><body><segment><metadata><OBJECT_NAME>ORBCOMM FM26</OBJECT_NAME><OBJECT_ID>1998-053F</OBJECT_ID><CENTER_NAME>EARTH</CENTER_NAME><REF_FRAME>TEME</REF_FRAME><TIME_SYSTEM>UTC</TIME_SYSTEM><MEAN_ELEMENT_THEORY>SGP4</MEAN_ELEMENT_THEORY></metadata><data><meanElements><EPOCH>2024-09-26T20:45:50.388192</EPOCH><MEAN_MOTION>14.35765624</MEAN_MOTION><ECCENTRICITY>.000463</ECCENTRICITY><INCLINATION>45.0069</INCLINATION><RA_OF_ASC_NODE>69.3205</RA_OF_ASC_NODE><ARG_OF_PERICENTER>31.0002</ARG_OF_PERICENTER><MEAN_ANOMALY>329.1118</MEAN_ANOMALY></meanElements><tleParameters><EPHEMERIS_TYPE>0</EPHEMERIS_TYPE><CLASSIFICATION_TYPE>U</CLASSIFICATION_TYPE><NORAD_CAT_ID>25480</NORAD_CAT_ID><ELEMENT_SET_NO>999</ELEMENT_SET_NO><REV_AT_EPOCH>35978</REV_AT_EPOCH><BSTAR>.1213E-2</BSTAR><MEAN_MOTION_DOT>.34E-4</MEAN_MOTION_DOT><MEAN_MOTION_DDOT>0</MEAN_MOTION_DDOT></tleParameters></data></segment></body></omm>
<omm id="CCSDS_OMM_VERS" version="2.0">
<header><CREATION_DATE/><ORIGINATOR/></header><body><segment><metadata><OBJECT_NAME>ORBCOMM FM27</OBJECT_NAME><OBJECT_ID>1998-053G</OBJECT_ID><CENTER_NAME>EARTH</CENTER_NAME><REF_FRAME>TEME</REF_FRAME><TIME_SYSTEM>UTC</TIME_SYSTEM><MEAN_ELEMENT_THEORY>SGP4</MEAN_ELEMENT_THEORY></metadata><data><meanElements><EPOCH>2024-09-27T03:16:27.716160</EPOCH><MEAN_MOTION>14.36449006</MEAN_MOTION><ECCENTRICITY>.0001485</ECCENTRICITY><INCLINATION>45.0051</INCLINATION><RA_OF_ASC_NODE>73.5305</RA_OF_ASC_NODE><ARG_OF_PERICENTER>186.9611</ARG_OF_PERICENTER><MEAN_ANOMALY>173.1216</MEAN_ANOMALY></meanElements><tleParameters><EPHEMERIS_TYPE>0</EPHEMERIS_TYPE><CLASSIFICATION_TYPE>U</CLASSIFICATION_TYPE><NORAD_CAT_ID>25481</NORAD_CAT_ID><ELEMENT_SET_NO>999</ELEMENT_SET_NO><REV_AT_EPOCH>35986</REV_AT_EPOCH><BSTAR>.13337E-2</BSTAR><MEAN_MOTION_DOT>.3806E-4</MEAN_MOTION_DOT><MEAN_MOTION_DDOT>0</MEAN_MOTION_DDOT></tleParameters></data></segment></body></omm>
<omm id="CCSDS_OMM_VERS" version="2.0">
<header><CREATION_DATE/><ORIGINATOR/></header><body><segment><metadata><OBJECT_NAME>ORBCOMM FM28</OBJECT_NAME><OBJECT_ID>1998-053H</OBJECT_ID><CENTER_NAME>EARTH</CENTER_NAME><REF_FRAME>TEME</REF_FRAME><TIME_SYSTEM>UTC</TIME_SYSTEM><MEAN_ELEMENT_THEORY>SGP4</MEAN_ELEMENT_THEORY></metadata><data><meanElements><EPOCH>2024-09-27T00:19:45.293952</EPOCH><MEAN_MOTION>14.36814645</MEAN_MOTION><ECCENTRICITY>.0001904</ECCENTRICITY><INCLINATION>45.0070</INCLINATION><RA_OF_ASC_NODE>12.1421</RA_OF_ASC_NODE><ARG_OF_PERICENTER>65.8364</ARG_OF_PERICENTER><MEAN_ANOMALY>294.2682</MEAN_ANOMALY></meanElements><tleParameters><EPHEMERIS_TYPE>0</EPHEMERIS_TYPE><CLASSIFICATION_TYPE>U</CLASSIFICATION_TYPE><NORAD_CAT_ID>25482</NORAD_CAT_ID><ELEMENT_SET_NO>999</ELEMENT_SET_NO><REV_AT_EPOCH>36065</REV_AT_EPOCH><BSTAR>.11376E-2</BSTAR><MEAN_MOTION_DOT>.325E-4</MEAN_MOTION_DOT><MEAN_MOTION_DDOT>0</MEAN_MOTION_DDOT></tleParameters></data></segment></body></omm>
<omm id="CCSDS_OMM_VERS" version="2.0">
<header><CREATION_DATE/><ORIGINATOR/></header><body><segment><metadata><OBJECT_NAME>ORBCOMM FM30</OBJECT_NAME><OBJECT_ID>1999-065A</OBJECT_ID><CENTER_NAME>EARTH</CENTER_NAME><REF_FRAME>TEME</REF_FRAME><TIME_SYSTEM>UTC</TIME_SYSTEM><MEAN_ELEMENT_THEORY>SGP4</MEAN_ELEMENT_THEORY></metadata><data><meanElements><EPOCH>2024-09-27T05:33:05.310144</EPOCH><MEAN_MOTION>14.35913877</MEAN_MOTION><ECCENTRICITY>.0004064</ECCENTRICITY><INCLINATION>45.0300</INCLINATION><RA_OF_ASC_NODE>253.2593</RA_OF_ASC_NODE><ARG_OF_PERICENTER>133.2295</ARG_OF_PERICENTER><MEAN_ANOMALY>226.8892</MEAN_ANOMALY></meanElements><tleParameters><EPHEMERIS_TYPE>0</EPHEMERIS_TYPE><CLASSIFICATION_TYPE>U</CLASSIFICATION_TYPE><NORAD_CAT_ID>25980</NORAD_CAT_ID><ELEMENT_SET_NO>999</ELEMENT_SET_NO><REV_AT_EPOCH>29716</REV_AT_EPOCH><BSTAR>.10259E-2</BSTAR><MEAN_MOTION_DOT>.2862E-4</MEAN_MOTION_DOT><MEAN_MOTION_DDOT>0</MEAN_MOTION_DDOT></tleParameters></data></segment></body></omm>
<omm id="CCSDS_OMM_VERS" version="2.0">
<header><CREATION_DATE/><ORIGINATOR/></header><body><segment><metadata><OBJECT_NAME>ORBCOMM FM31</OBJECT_NAME><OBJECT_ID>1999-065B</OBJECT_ID><CENTER_NAME>EARTH</CENTER_NAME><REF_FRAME>TEME</REF_FRAME><TIME_SYSTEM>UTC</TIME_SYSTEM><MEAN_ELEMENT_THEORY>SGP4</MEAN_ELEMENT_THEORY></metadata><data><meanElements><EPOCH>2024-09-26T15:23:16.814112</EPOCH><MEAN_MOTION>14.35887814</MEAN_MOTION><ECCENTRICITY>.0001837</ECCENTRICITY><INCLINATION>45.0216</INCLINATION><RA_OF_ASC_NODE>249.6486</RA_OF_ASC_NODE><ARG_OF_PERICENTER>182.2035</ARG_OF_PERICENTER><MEAN_ANOMALY>177.8805</MEAN_ANOMALY></meanElements><tleParameters><EPHEMERIS_TYPE>0</EPHEMERIS_TYPE><CLASSIFICATION_TYPE>U</CLASSIFICATION_TYPE><NORAD_CAT_ID>25981</NORAD_CAT_ID><ELEMENT_SET_NO>999</ELEMENT_SET_NO><REV_AT_EPOCH>29610</REV_AT_EPOCH><BSTAR>.10504E-2</BSTAR><MEAN_MOTION_DOT>.2932E-4</MEAN_MOTION_DOT><MEAN_MOTION_DDOT>0</MEAN_MOTION_DDOT></tleParameters></data></segment></body></omm>

</ndm>
